$$SOE
2460154.500000000, A.D. 2023-Jul-29 00:00:00.0000, -3.527264164895757E+08, 2.605665118855304E+08, -4.351944243480461E+07,
2460161.500000000, A.D. 2023-Aug-05 00:00:00.0000, -3.593227816178520E+08, 2.521864883934244E+08, -4.416340101859923E+07,
2460168.500000000, A.D. 2023-Aug-12 00:00:00.0000, -3.657160998149734E+08, 2.436639056131214E+08, -4.478239525650778E+07,
2460175.500000000, A.D. 2023-Aug-19 00:00:00.0000, -3.719034976791663E+08, 2.350040700387716E+08, -4.537616548319944E+07,
2460182.500000000, A.D. 2023-Aug-26 00:00:00.0000, -3.778822508040957E+08, 2.262123354291191E+08, -4.594446968085697E+07,
2460189.500000000, A.D. 2023-Sep-02 00:00:00.0000, -3.836497838490764E+08, 2.172940980708032E+08, -4.648708342236420E+07,
2460196.500000000, A.D. 2023-Sep-09 00:00:00.0000, -3.892036704306657E+08, 2.082547919929910E+08, -4.700379980781057E+07,
2460203.500000000, A.D. 2023-Sep-16 00:00:00.0000, -3.945416326727362E+08, 1.990998840812728E+08, -4.749442941512866E+07,
2460210.500000000, A.D. 2023-Sep-23 00:00:00.0000, -3.996615400041803E+08, 1.898348693830073E+08, -4.795880028019758E+07,
2460217.500000000, A.D. 2023-Sep-30 00:00:00.0000, -4.045614075496908E+08, 1.804652677994998E+08, -4.839675777853320E+07,
2460224.500000000, A.D. 2023-Oct-07 00:00:00.0000, -4.092393964746577E+08, 1.709966216267343E+08, -4.880816423796009E+07,
2460231.500000000, A.D. 2023-Oct-14 00:00:00.0000, -4.136938152517332E+08, 1.614344906372682E+08, -4.919289864949502E+07,
2460238.500000000, A.D. 2023-Oct-21 00:00:00.0000, -4.179231186247517E+08, 1.517844463106883E+08, -4.955085664170160E+07,
2460245.500000000, A.D. 2023-Oct-28 00:00:00.0000, -4.219259056991050E+08, 1.420520674744143E+08, -4.988195040307236E+07,
2460252.500000000, A.D. 2023-Nov-04 00:00:00.0000, -4.257009184165227E+08, 1.322429365866641E+08, -5.018610850161299E+07,
2460259.500000000, A.D. 2023-Nov-11 00:00:00.0000, -4.292470402444188E+08, 1.223626360651636E+08, -5.046327566790614E+07,
2460266.500000000, A.D. 2023-Nov-18 00:00:00.0000, -4.325632948668870E+08, 1.124167446002023E+08, -5.071341256766153E+07,
2460273.500000000, A.D. 2023-Nov-25 00:00:00.0000, -4.356488448109403E+08, 1.024108334767199E+08, -5.093649556915437E+07,
2460280.500000000, A.D. 2023-Dec-02 00:00:00.0000, -4.385029899863570E+08, 9.235046289606586E+07, -5.113251650972034E+07,
2460287.500000000, A.D. 2023-Dec-09 00:00:00.0000, -4.411251660676914E+08, 8.224117824035785E+07, -5.130148247397221E+07,
2460294.500000000, A.D. 2023-Dec-16 00:00:00.0000, -4.435149424365782E+08, 7.208850629382157E+07, -5.144341560967971E+07,
2460301.500000000, A.D. 2023-Dec-23 00:00:00.0000, -4.456720193403654E+08, 6.189795210988531E+07, -5.155835295740379E+07,
2460308.500000000, A.D. 2023-Dec-30 00:00:00.0000, -4.475962256110741E+08, 5.167499757323693E+07, -5.164634608534067E+07,
2460315.500000000, A.D. 2024-Jan-06 00:00:00.0000, -4.492875187223231E+08, 4.142509929475474E+07, -5.170746056028856E+07,
2460322.500000000, A.D. 2024-Jan-13 00:00:00.0000, -4.507459840179876E+08, 3.115368403150494E+07, -5.174177569442026E+07,
2460329.500000000, A.D. 2024-Jan-20 00:00:00.0000, -4.519718318941560E+08, 2.086614471558763E+07, -5.174938442871797E+07,
2460336.500000000, A.D. 2024-Jan-27 00:00:00.0000, -4.529653949686729E+08, 1.056783774200312E+07, -5.173039311467804E+07,
2460343.500000000, A.D. 2024-Feb-03 00:00:00.0000, -4.537271256742183E+08, 2.640805655205548E+05, -5.168492123416653E+07,
2460350.500000000, A.D. 2024-Feb-10 00:00:00.0000, -4.542575940046553E+08, -1.003985068457299E+07, -5.161310110810412E+07,
2460357.500000000, A.D. 2024-Feb-17 00:00:00.0000, -4.545574852812669E+08, -2.033872356388553E+07, -5.151507760688794E+07,
2460364.500000000, A.D. 2024-Feb-24 00:00:00.0000, -4.546275979071881E+08, -3.062735163242390E+07, -5.139100786512890E+07,
2460371.500000000, A.D. 2024-Mar-02 00:00:00.0000, -4.544688410846050E+08, -4.090059676802480E+07, -5.124106100644524E+07,
2460378.500000000, A.D. 2024-Mar-09 00:00:00.0000, -4.540822323597084E+08, -5.115337153813614E+07, -5.106541789654660E+07,
2460385.500000000, A.D. 2024-Mar-16 00:00:00.0000, -4.534688946035840E+08, -6.138064143429850E+07, -5.086427094503292E+07,
2460392.500000000, A.D. 2024-Mar-23 00:00:00.0000, -4.526300525354805E+08, -7.157742586204201E+07, -5.063782385593514E+07,
2460399.500000000, A.D. 2024-Mar-30 00:00:00.0000, -4.515670310321949E+08, -8.173879791545150E+07, -5.038629112380359E+07,
2460406.500000000, A.D. 2024-Apr-06 00:00:00.0000, -4.502812549713565E+08, -9.185988630704117E+07, -5.010989757456429E+07,
2460413.500000000, A.D. 2024-Apr-13 00:00:00.0000, -4.487742470615457E+08, -1.019358786186126E+08, -4.980887820895025E+07,
2460420.500000000, A.D. 2024-Apr-20 00:00:00.0000, -4.470476246132928E+08, -1.119620231982205E+08, -4.948347804229626E+07,
2460427.500000000, A.D. 2024-Apr-27 00:00:00.0000, -4.451030967694393E+08, -1.219336302678733E+08, -4.913395184740397E+07,
2460434.500000000, A.D. 2024-May-04 00:00:00.0000, -4.429424621100873E+08, -1.318460729492090E+08, -4.876056386653521E+07,
2460441.500000000, A.D. 2024-May-11 00:00:00.0000, -4.405676063978370E+08, -1.416947883119587E+08, -4.836358752333993E+07,
2460448.500000000, A.D. 2024-May-18 00:00:00.0000, -4.379805003849078E+08, -1.514752784257227E+08, -4.794330514084265E+07,
2460455.500000000, A.D. 2024-May-25 00:00:00.0000, -4.351831976602173E+08, -1.611831114240579E+08, -4.750000766845495E+07,
2460462.500000000, A.D. 2024-Jun-01 00:00:00.0000, -4.321778324788166E+08, -1.708139226402433E+08, -4.703399442817301E+07,
2460469.500000000, A.D. 2024-Jun-08 00:00:00.0000, -4.289666173292167E+08, -1.803634158397023E+08, -4.654557290431926E+07,
2460476.500000000, A.D. 2024-Jun-15 00:00:00.0000, -4.255518398406001E+08, -1.898273640060452E+08, -4.603505856872556E+07,
2460483.500000000, A.D. 2024-Jun-22 00:00:00.0000, -4.219358600360349E+08, -1.992016085077417E+08, -4.550277455284345E+07,
2460490.500000000, A.D. 2024-Jun-29 00:00:00.0000, -4.181211100541608E+08, -2.084820584691266E+08, -4.494905112085553E+07,
2460497.500000000, A.D. 2024-Jul-06 00:00:00.0000, -4.141100936965230E+08, -2.176646928203456E+08, -4.437422538854358E+07,
2460504.500000000, A.D. 2024-Jul-13 00:00:00.0000, -4.099053838536626E+08, -2.267455622045750E+08, -4.377864123597813E+07,
2460511.500000000, A.D. 2024-Jul-20 00:00:00.0000, -4.055096197962711E+08, -2.357207895954697E+08, -4.316264913775243E+07,
2460518.500000000, A.D. 2024-Jul-27 00:00:00.0000, -4.009255049872801E+08, -2.445865705866979E+08, -4.252660592888004E+07,
2460525.500000000, A.D. 2024-Aug-03 00:00:00.0000, -3.961558051425478E+08, -2.533391737317216E+08, -4.187087456229235E+07,
2460532.500000000, A.D. 2024-Aug-10 00:00:00.0000, -3.912033463758293E+08, -2.619749409412985E+08, -4.119582387395386E+07,
2460539.500000000, A.D. 2024-Aug-17 00:00:00.0000, -3.860710133822857E+08, -2.704902879191738E+08, -4.050182835851972E+07,
2460546.500000000, A.D. 2024-Aug-24 00:00:00.0000, -3.807617476337836E+08, -2.788817046595933E+08, -3.978926796008822E+07,
2460553.500000000, A.D. 2024-Aug-31 00:00:00.0000, -3.752785454706262E+08, -2.871457560689406E+08, -3.905852789366722E+07,
2460560.500000000, A.D. 2024-Sep-07 00:00:00.0000, -3.696244557235509E+08, -2.952790825857880E+08, -3.830999852040873E+07,
2460567.500000000, A.D. 2024-Sep-14 00:00:00.0000, -3.638025767791885E+08, -3.032783998045234E+08, -3.754407520288552E+07,
2460574.500000000, A.D. 2024-Sep-21 00:00:00.0000, -3.578160551158190E+08, -3.111404966920065E+08, -3.676115792064281E+07,
2460581.500000000, A.D. 2024-Sep-28 00:00:00.0000, -3.516680857959159E+08, -3.188622356286504E+08, -3.596165086556491E+07,
2460588.500000000, A.D. 2024-Oct-05 00:00:00.0000, -3.453619112471960E+08, -3.264405542767516E+08, -3.514596235427013E+07,
2460595.500000000, A.D. 2024-Oct-12 00:00:00.0000, -3.389008186950034E+08, -3.338724662987504E+08, -3.431450478132473E+07,
2460602.500000000, A.D. 2024-Oct-19 00:00:00.0000, -3.322881379978796E+08, -3.411550611972945E+08, -3.346769447475888E+07,
2460609.500000000, A.D. 2024-Oct-26 00:00:00.0000, -3.255272399183347E+08, -3.482855040792493E+08, -3.260595151620062E+07,
2460616.500000000, A.D. 2024-Nov-02 00:00:00.0000, -3.186215345706187E+08, -3.552610354932684E+08, -3.172969956120035E+07,
2460623.500000000, A.D. 2024-Nov-09 00:00:00.0000, -3.115744699481622E+08, -3.620789713218454E+08, -3.083936566681486E+07,
2460630.500000000, A.D. 2024-Nov-16 00:00:00.0000, -3.043895305042603E+08, -3.687367027291459E+08, -2.993538012867020E+07,
2460637.500000000, A.D. 2024-Nov-23 00:00:00.0000, -2.970702357385001E+08, -3.752316962158755E+08, -2.901817633569019E+07,
2460644.500000000, A.D. 2024-Nov-30 00:00:00.0000, -2.896201385799479E+08, -3.815614938250829E+08, -2.808819066485682E+07,
2460651.500000000, A.D. 2024-Dec-07 00:00:00.0000, -2.820428231469215E+08, -3.877237130794570E+08, -2.714586241984770E+07,
2460658.500000000, A.D. 2024-Dec-14 00:00:00.0000, -2.743419025710653E+08, -3.937160454270337E+08, -2.619163365007481E+07,
2460665.500000000, A.D. 2024-Dec-21 00:00:00.0000, -2.665210192028422E+08, -3.995362544368458E+08, -2.522594873857397E+07,
2460672.500000000, A.D. 2024-Dec-28 00:00:00.0000, -2.585838452246709E+08, -4.051821767136063E+08, -2.424925418201074E+07,
2460679.500000000, A.D. 2025-Jan-04 00:00:00.0000, -2.505340810742272E+08, -4.106517231576108E+08, -2.326199860666803E+07,
2460686.500000000, A.D. 2025-Jan-11 00:00:00.0000, -2.423754534990436E+08, -4.159428789113873E+08, -2.226463271734852E+07,
2460693.500000000, A.D. 2025-Jan-18 00:00:00.0000, -2.341117141585469E+08, -4.210537029124551E+08, -2.125760916970471E+07,
2460700.500000000, A.D. 2025-Jan-25 00:00:00.0000, -2.257466385287631E+08, -4.259823275272797E+08, -2.024138242668265E+07,
2460707.500000000, A.D. 2025-Feb-01 00:00:00.0000, -2.172840249187272E+08, -4.307269582974736E+08, -1.921640861858320E+07,
2460714.500000000, A.D. 2025-Feb-08 00:00:00.0000, -2.087276935389302E+08, -4.352858737799546E+08, -1.818314541022417E+07,
$$EOE